[{"OBJECT_NAME":"STARLINK-30831","OBJECT_ID":"2023-166D","EPOCH":"2026-03-09T17:28:27.098688","MEAN_MOTION":15.30187181,"ECCENTRICITY":0.00011133,"INCLINATION":53.1598,"RA_OF_ASC_NODE":219.5439,"ARG_OF_PERICENTER":90.4334,"MEAN_ANOMALY":269.6794,"EPHEMERIS_TYPE":0,"CLASSIFICATION_TYPE":"U","NORAD_CAT_ID":58153,"ELEMENT_SET_NO":999,"REV_AT_EPOCH":13318,"BSTAR":2.282873e-6,"MEAN_MOTION_DOT":-2.91e-6,"MEAN_MOTION_DDOT":0},{"OBJECT_NAME":"TANSTAAFL-2","OBJECT_ID":"2024-247B","EPOCH":"2026-03-08T04:58:51.015360","MEAN_MOTION":15.28016845,"ECCENTRICITY":0.00030723,"INCLINATION":44.988,"RA_OF_ASC_NODE":125.0934,"ARG_OF_PERICENTER":298.8909,"MEAN_ANOMALY":61.1666,"EPHEMERIS_TYPE":0,"CLASSIFICATION_TYPE":"U","NORAD_CAT_ID":62378,"ELEMENT_SET_NO":999,"REV_AT_EPOCH":6750,"BSTAR":0.00050871624,"MEAN_MOTION_DOT":0.00013897,"MEAN_MOTION_DDOT":0}]
