STARLINK-30831          
1 58153U 23166D   26068.72809141 -.00000291  00000+0  22829-5 0  9994
2 58153  53.1598 219.5439 0001113  90.4334 269.6794 15.30187181133181
TANSTAAFL-2             
1 62378U 24247B   26067.20753490  .00013897  00000+0  50872-3 0  9998
2 62378  44.9880 125.0934 0003072 298.8909  61.1666 15.28016845 67506
